STARLINK-2067
1 27674C 21012BG  21325.12795056  .00005617  00000-0  37643-3 0  3250
2 27674  53.0541 257.6444 0001890  62.1335  15.8985 15.06384377    19
